{"fetched_at":"2026-03-29T16:36:15Z","count":15609,"tles":[{"name":"STARLINK-30259","line1":"1 57521U 23115A   26087.73556459  .00000411  00000+0  24463-4 0  9997","line2":"2 57521  42.9981 254.0677 0001396 236.6605 123.4113 15.27571217146489","category":"Starlink"}]}