{
  "norad_id": 57521,
  "name": "STARLINK-30259",
  "history": [
    {
      "epoch": "2026-03-28T17:39:12.780576",
      "apogee_km": 484.03322087776087,
      "perigee_km": 482.1175703769013,
      "latitude_deg": -35.555264396671944,
      "longitude_deg": 2.7142006400972605,
      "semi_major_axis_km": 6861.212395627331,
      "eccentricity": 0.0001396,
      "inclination_deg": 42.9981,
      "raan_deg": 254.0677,
      "arg_perigee_deg": 236.6605,
      "mean_anomaly_deg": 123.4113,
      "mean_motion_rev_day": 15.27571217
    }
  ]
}